{
    "signature": {
        "source": "NASA/JPL SBDB (Small-Body DataBase) Query API",
        "version": "1.0"
    },
    "fields": [
        "full_name",
        "epoch",
        "e",
        "a",
        "q",
        "i",
        "om",
        "w",
        "ma"
    ],
    "data": [
        [
            "   433 Eros (A898 PA)",
            "2460600.5",
            "0.2227",
            "1.458",
            "1.133",
            "10.83",
            "304.27",
            "178.91",
            "86.67"
        ],
        [
            "   719 Albert (A911 TB)",
            "2460600.5",
            "0.5468",
            "2.636",
            "1.195",
            "11.58",
            "183.86",
            "156.22",
            "148.45"
        ],
        [
            "   887 Alinda (A918 AA)",
            "2460600.5",
            "0.5711",
            "2.473",
            "1.060",
            "9.40",
            "110.42",
            "350.47",
            "340.20"
        ],
        [
            "  1036 Ganymed (A924 UB)",
            "2460600.5",
            "0.5328",
            "2.665",
            "1.245",
            "26.69",
            "215.49",
            "132.50",
            "6.98"
        ],
        [
            "  1221 Amor (1932 EA1)",
            "2460600.5",
            "0.4347",
            "1.92",
            "1.085",
            "11.87",
            "171.26",
            "26.72",
            "271.70"
        ],
        [
            "  1566 Icarus (1949 MA)",
            "2460600.5",
            "0.8270",
            "1.078",
            "0.187",
            "22.80",
            "87.95",
            "31.43",
            "160.86"
        ],
        [
            "  1580 Betulia (1950 KA)",
            "2460600.5",
            "0.4876",
            "2.195",
            "1.125",
            "52.19",
            "62.23",
            "159.73",
            "319.03"
        ],
        [
            "  1620 Geographos (1951 RA)",
            "2460600.5",
            "0.3356",
            "1.246",
            "0.828",
            "13.34",
            "337.15",
            "277.01",
            "289.36"
        ],
        [
            "  1627 Ivar (1929 SH)",
            "2460600.5",
            "0.3970",
            "1.863",
            "1.124",
            "8.45",
            "133.08",
            "167.84",
            "156.41"
        ],
        [
            "  1685 Toro (1948 OA)",
            "2460600.5",
            "0.4361",
            "1.368",
            "0.771",
            "9.38",
            "274.21",
            "127.27",
            "196.26"
        ],
        [
            "  1862 Apollo (1932 HA)",
            "2460600.5",
            "0.5599",
            "1.471",
            "0.647",
            "6.35",
            "35.56",
            "286.03",
            "252.87"
        ],
        [
            "  1863 Antinous (1948 EA)",
            "2460600.5",
            "0.6063",
            "2.261",
            "0.890",
            "18.35",
            "346.00",
            "268.57",
            "173.83"
        ],
        [
            "  1864 Daedalus (1971 FA)",
            "2460600.5",
            "0.6143",
            "1.461",
            "0.564",
            "22.21",
            "6.61",
            "325.66",
            "34.28"
        ],
        [
            "  1865 Cerberus (1971 UA)",
            "2460600.5",
            "0.4668",
            "1.08",
            "0.576",
            "16.10",
            "212.89",
            "325.29",
            "328.39"
        ],
        [
            "  1866 Sisyphus (1972 XA)",
            "2460600.5",
            "0.5380",
            "1.894",
            "0.875",
            "41.21",
            "63.45",
            "293.12",
            "349.34"
        ],
        [
            "  1915 Quetzalcoatl (1953 EA)",
            "2460600.5",
            "0.5703",
            "2.544",
            "1.093",
            "20.40",
            "162.93",
            "347.77",
            "284.48"
        ],
        [
            "  1916 Boreas (1953 RA)",
            "2460600.5",
            "0.4493",
            "2.273",
            "1.252",
            "12.88",
            "340.60",
            "335.86",
            "280.05"
        ],
        [
            "  1917 Cuyo (1968 AA)",
            "2460600.5",
            "0.5057",
            "2.149",
            "1.062",
            "23.96",
            "188.28",
            "194.56",
            "34.92"
        ],
        [
            "  1943 Anteros (1973 EC)",
            "2460600.5",
            "0.2561",
            "1.43",
            "1.064",
            "8.71",
            "246.30",
            "338.46",
            "29.90"
        ],
        [
            "  1980 Tezcatlipoca (1950 LA)",
            "2460600.5",
            "0.3647",
            "1.71",
            "1.086",
            "26.87",
            "246.54",
            "115.51",
            "35.06"
        ]
    ],
    "count": 36210
}